line1,line2,classification,launch_year,launch_number,launch_piece,epoch_year,epoch_day,mean_motion_dot,mean_motion_ddot,bstar,ephemeris_type,element_number,satellite_number,inclination,ra_of_asc_node,eccentricity,arg_of_perigee,mean_anomaly,mean_motion,rev_at_epoch,datetime,x,y,z,cartesian_cords,NORAD_CAT_ID,OBJECT_TYPE,SATNAME,SITE,Operator/Owner,Users,Purpose,anom_inclination,anom_ra_of_asc_node,anom_eccentricity,anom_arg_of_perigee,anom_mean_anomaly,anom_mean_motion,anom_count
1 01570U 65070A   21284.75661378 -.00000102  00000-0 -35276-4 0  9993,2 01570  56.0560  68.5611 0102620 163.2461 311.9169 12.52766437567133,U,65,070,A,21,284.75661378,-1.02e-06,0.0,-3.5276000000000006e-05,0,999,1570,56.056,68.5611,0.010262,163.2461,311.9169,12.52766437,56713,2021-10-11 18:09:31.430592,-4847.134185606749,-1508.8727924518448,5884.489764638851,[-4847.13418561 -1508.87279245  5884.48976464],1570,PAYLOAD,COSMOS 80,TTMTR,0,0,0,0.0,0.0,0.0,0.0,0.0,0.0,0.0
1 01570U 65070A   21284.41905229 -.00000104  00000-0 -48320-4 0  9998,2 01570  56.0560  69.4770 0102634 162.7884 229.5289 12.52766443567096,U,65,070,A,21,284.41905229,-1.04e-06,0.0,-4.8320000000000005e-05,0,999,1570,56.056,69.477,0.0102634,162.7884,229.5289,12.52766443,56709,2021-10-11 10:03:26.117856,255.79859983188626,7104.8985473507155,3400.8223056092966,[ 255.79859983 7104.89854735 3400.82230561],1570,PAYLOAD,COSMOS 80,TTMTR,0,0,0,0.0,0.0,0.0,0.0,0.0,0.0,0.0
1  1570U 65070A   21283.69667329 -.00000111  00000-0 -91658-4 0  9993,2  1570  56.0558  71.4370 0102668 161.8166 211.6225 12.52766406567442,U,65,070,A,21,283.69667329,-1.11e-06,0.0,-9.1658e-05,0,999,1570,56.0558,71.437,0.0102668,161.8166,211.6225,12.52766406,56744,2021-10-10 16:43:12.572256,1570.2662471988842,7606.2844467323675,1441.7504725675403,[1570.2662472  7606.28444673 1441.75047257],1570,PAYLOAD,COSMOS 80,TTMTR,0,0,0,0.0,0.0,0.0,0.0,0.0,0.0,0.0
1 01570U 65070A   21283.55028192 -.00000116  00000-0 -11901-3 0  9994,2 01570  56.0557  71.8342 0102674 161.6178 271.4040 12.52766390566981,U,65,070,A,21,283.55028192,-1.16e-06,0.0,-0.00011901,0,999,1570,56.0557,71.8342,0.0102674,161.6178,271.404,12.5276639,56698,2021-10-10 13:12:24.357888,-3153.433212788568,3629.3791284916633,6171.5779330485,[-3153.43321279  3629.37912849  6171.57793305],1570,PAYLOAD,COSMOS 80,TTMTR,0,0,0,0.0,0.0,0.0,0.0,0.0,0.0,0.0
1 01570U 65070A   21282.73956620 -.00000114  00000-0 -11013-3 0  9991,2 01570  56.0556  74.0339 0102711 160.5232 215.1060 12.52766423566885,U,65,070,A,21,282.7395662,-1.14e-06,0.0,-0.00011013,0,999,1570,56.0556,74.0339,0.0102711,160.5232,215.106,12.52766423,56688,2021-10-09 17:44:58.519680,1051.4722043482202,7643.96938857384,1678.9032295130598,[1051.47220435 7643.96938857 1678.90322951],1570,PAYLOAD,COSMOS 80,TTMTR,0,0,0,0.0,0.0,0.0,0.0,0.0,0.0,0.0
1 01570U 65070A   21282.21551733 -.00000116  00000-0 -11919-3 0  9997,2 01570  56.0555  75.4559 0102730 159.8175  11.6630 12.52766434566818,U,65,070,A,21,282.21551733,-1.16e-06,0.0,-0.00011919,0,999,1570,56.0555,75.4559,0.010273,159.8175,11.663,12.52766434,56681,2021-10-09 05:10:20.697312,-2557.5374751009567,-7260.210935690011,921.4024131282332,[-2557.5374751  -7260.21093569   921.40241313],1570,PAYLOAD,COSMOS 80,TTMTR,0,0,0,0.0,0.0,0.0,0.0,0.0,0.0,0.0
1 01570U 65070A   21281.80438919 -.00000115  00000-0 -11597-3 0  9992,2 01570  56.0554  76.5714 0102751 159.2632 317.4893 12.52766433566768,U,65,070,A,21,281.80438919,-1.15e-06,0.0,-0.00011597,0,999,1570,56.0554,76.5714,0.0102751,159.2632,317.4893,12.52766433,56676,2021-10-08 19:18:19.226016,-4582.718003572816,-2381.6747837255434,5799.83819966217,[-4582.71800357 -2381.67478373  5799.83819966],1570,PAYLOAD,COSMOS 80,TTMTR,0,0,0,0.0,0.0,0.0,0.0,0.0,0.0,0.0
1  1570U 65070A   21281.55488181 -.00000116  00000-0 -11944-3 0  9997,2  1570  56.0554  77.2484 0102758 158.9262 272.2203 12.52766448567177,U,65,070,A,21,281.55488181,-1.16e-06,0.0,-0.00011944000000000001,0,999,1570,56.0554,77.2484,0.0102758,158.9262,272.2203,12.52766448,56717,2021-10-08 13:19:01.788384,-3381.1175843031506,3539.4896544333897,6101.530580424661,[-3381.1175843   3539.48965443  6101.53058042],1570,PAYLOAD,COSMOS 80,TTMTR,0,0,0,0.0,0.0,0.0,0.0,0.0,0.0,0.0
1 01570U 65070A   21280.74414753 -.00000111  00000-0 -88033-4 0  9990,2 01570  56.0553  79.4481 0102793 157.8345 215.8354 12.52766463566633,U,65,070,A,21,280.74414753,-1.11e-06,0.0,-8.8033e-05,0,999,1570,56.0553,79.4481,0.0102793,157.8345,215.8354,12.52766463,56663,2021-10-07 17:51:34.346592,482.13901838247773,7744.849168767436,1461.0931651066335,[ 482.13901838 7744.84916877 1461.09316511],1570,PAYLOAD,COSMOS 80,TTMTR,0,0,0,0.0,0.0,0.0,0.0,0.0,0.0,0.0
1 01570U 65070A   21280.42889753 -.00000107  00000-0 -67869-4 0  9990,2 01570  56.0552  80.3035 0102804 157.4104 234.0680 12.52766490566590,U,65,070,A,21,280.42889753,-1.07e-06,0.0,-6.786900000000001e-05,0,999,1570,56.0552,80.3035,0.0102804,157.4104,234.068,12.5276649,56659,2021-10-07 10:17:36.746592,-1013.4259034957507,7073.189209786049,3313.417548283725,[-1013.4259035   7073.18920979  3313.41754828],1570,PAYLOAD,COSMOS 80,TTMTR,0,0,0,0.0,0.0,0.0,0.0,0.0,0.0,0.0
1 01570U 65070A   21279.80901927 -.00000105  00000-0 -52642-4 0  9999,2 01570  56.0551  81.9855 0102833 156.5753 318.4376 12.52766482566510,U,65,070,A,21,279.80901927,-1.05e-06,0.0,-5.2642e-05,0,999,1570,56.0551,81.9855,0.0102833,156.5753,318.4376,12.52766482,56651,2021-10-06 19:24:59.264928,-4361.120042246803,-2586.3611217687303,5881.023521963922,[-4361.12004225 -2586.36112177  5881.02352196],1570,PAYLOAD,COSMOS 80,TTMTR,0,0,0,0.0,0.0,0.0,0.0,0.0,0.0,0.0
1  1570U 65070A   21279.47159042 -.00000105  00000-0 -56118-4 0  9997,2  1570  56.0551  82.9010 0102846 156.1193 236.6460 12.52766470566918,U,65,070,A,21,279.47159042,-1.05e-06,0.0,-5.611800000000001e-05,0,999,1570,56.0551,82.901,0.0102846,156.1193,236.646,12.5276647,56691,2021-10-06 11:19:05.412288,-1425.5739124411125,6939.092985309152,3435.692723938906,[-1425.57391244  6939.09298531  3435.69272394],1570,PAYLOAD,COSMOS 80,TTMTR,0,0,0,0.0,0.0,0.0,0.0,0.0,0.0,0.0
1 01570U 65070A   21278.43236469 -.00000097  00000-0 -45657-5 0  9998,2 01570  56.0549  85.7207 0102890 154.7209 229.7708 12.52766463566342,U,65,070,A,21,278.43236469,-9.7e-07,0.0,-4.5657e-06,0,999,1570,56.0549,85.7207,0.010289,154.7209,229.7708,12.52766463,56634,2021-10-05 10:22:36.309216,-1171.6012505595083,7343.949047848941,2611.0691823325874,[-1171.60125056  7343.94904785  2611.06918233],1570,PAYLOAD,COSMOS 80,TTMTR,0,0,0,0.0,0.0,0.0,0.0,0.0,0.0,0.0
1 01570U 65070A   21277.90238073 -.00000094  00000-0  15657-4 0  9994,2 01570  56.0548  87.1587 0102914 154.0072 359.5604 12.52766457566278,U,65,070,A,21,277.90238073,-9.4e-07,0.0,0.0,0,999,1570,56.0548,87.1587,0.0102914,154.0072,359.5604,12.52766457,56627,2021-10-04 21:39:25.695072,-2291.080925175731,-6827.624353345617,2858.7347166517015,[-2291.08092518 -6827.62435335  2858.73471665],1570,PAYLOAD,COSMOS 80,TTMTR,0,0,0,0.0,0.0,0.0,0.0,0.0,0.0,0.0
1 01570U 65070A   21277.47586958 -.00000092  00000-0  28862-4 0  9994,2 01570  56.0547  88.3159 0102929 153.4336 236.0084 12.52766464566221,U,65,070,A,21,277.47586958,-9.2e-07,0.0,0.0,0,999,1570,56.0547,88.3159,0.0102929,153.4336,236.0084,12.52766464,56622,2021-10-04 11:25:15.131712,-1846.772491853809,6994.697305107994,3109.5854120598005,[-1846.77249185  6994.69730511  3109.58541206],1570,PAYLOAD,COSMOS 80,TTMTR,0,0,0,0.0,0.0,0.0,0.0,0.0,0.0,0.0
1  1570U 65070A   21277.18814553 -.00000089  00000-0  43536-4 0  9998,2  1570  56.0547  89.0967 0102943 153.0458  18.3828 12.52766476566627,U,65,070,A,21,277.18814553,-8.9e-07,0.0,0.0,0,999,1570,56.0547,89.0967,0.0102943,153.0458,18.3828,12.52766476,56662,2021-10-04 04:30:55.773792,-767.1488958096986,-7663.083652496444,908.6462059851093,[ -767.14889581 -7663.0836525    908.64620599],1570,PAYLOAD,COSMOS 80,TTMTR,0,0,0,0.0,0.0,0.0,0.0,0.0,0.0,0.0
1 01570U 65070A   21276.85697816 -.00000087  00000-0  61454-4 0  9999,2 01570  56.0547  89.9952 0102959 152.6010 324.8276 12.52766467566145,U,65,070,A,21,276.85697816,-8.7e-07,0.0,0.0,0,999,1570,56.0547,89.9952,0.0102959,152.601,324.8276,12.52766467,56614,2021-10-03 20:34:02.913024,-3874.86186035251,-3476.8207312193686,5753.776131498264,[-3874.86186035 -3476.82073122  5753.7761315 ],1570,PAYLOAD,COSMOS 80,TTMTR,0,0,0,0.0,0.0,0.0,0.0,0.0,0.0,0.0
1 01570U 65070A   21276.43625569 -.00000086  00000-0  68155-4 0  9993,2 01570  56.0545  91.1367 0102973 152.0333 227.3842 12.52766462566091,U,65,070,A,21,276.43625569,-8.6e-07,0.0,0.0,0,999,1570,56.0545,91.1367,0.0102973,152.0333,227.3842,12.52766462,56609,2021-10-03 10:28:12.491616,-1503.1476254356207,7457.038381619317,2075.263832712775,[-1503.14762544  7457.03838162  2075.26383271],1570,PAYLOAD,COSMOS 80,TTMTR,0,0,0,0.0,0.0,0.0,0.0,0.0,0.0,0.0
1 01570U 65070A   21275.79645326 -.00000086  00000-0  64345-4 0  9991,2 01570  56.0544  92.8727 0103002 151.1741 221.8938 12.52766439566016,U,65,070,A,21,275.79645326,-8.6e-07,0.0,0.0,0,999,1570,56.0544,92.8727,0.0103002,151.1741,221.8938,12.52766439,56601,2021-10-02 19:06:53.561664,-1276.7863523305127,7662.892040553064,1385.7025248653342,[-1276.78635233  7662.89204055  1385.70252487],1570,PAYLOAD,COSMOS 80,TTMTR,0,0,0,0.0,0.0,0.0,0.0,0.0,0.0,0.0
1 01570U 65070A   21274.86217851 -.00000088  00000-0  53724-4 0  9997,2 01570  56.0543  95.4078 0103043 149.9200 328.3415 12.52766430565892,U,65,070,A,21,274.86217851,-8.8e-07,0.0,0.0,0,999,1570,56.0543,95.4078,0.0103043,149.92,328.3415,12.5276643,56589,2021-10-01 20:41:32.223264,-3487.998108122439,-3931.0667682233925,5704.961607145681,[-3487.99810812 -3931.06676822  5704.96160715],1570,PAYLOAD,COSMOS 80,TTMTR,0,0,0,0.0,0.0,0.0,0.0,0.0,0.0,0.0
